TDRS 11                 
1 39070U 13004A   26088.15195359  .00000063  00000+0  00000+0 0  9996
2 39070   3.4036  29.8200 0004440 353.8369  43.1667  1.00271129 45893
TDRS 12                 
1 39504U 14004A   26088.03576459 -.00000286  00000+0  00000+0 0  9998
2 39504   3.9004  17.7016 0003455 257.7886 242.6507  1.00279282 43476
GPM-CORE                
1 39574U 14009C   26088.13054202  .00019919  00000+0  42136-3 0  9990
2 39574  64.9728 216.3483 0012445 272.5860  87.3856 15.45118434685449
MMS 1                   
1 40482U 15011A   26088.25003471 -.00001586  00000+0  00000+0 0  9991
2 40482  71.0585 349.8665 8385576 165.7789  64.4561  0.28310483  1301
MMS 2                   
1 40483U 15011B   26088.25003471 -.00001587  00000+0  00000+0 0  9993
2 40483  71.0587 349.8686 8386318 165.7849  64.4405  0.28310479  1301
MMS 3                   
1 40484U 15011C   26088.25003471 -.00001587  00000+0  00000+0 0  9994
2 40484  71.0613 349.8733 8385577 165.7791  64.4462  0.28310448  1306
MMS 4                   
1 40485U 15011D   26088.25003471 -.00001587  00000+0  00000+0 0  9995
2 40485  71.0589 349.8685 8385104 165.7866  64.4326  0.28310434  1308
TDRS 13                 
1 42915U 17047A   26088.18419370 -.00000117  00000+0  00000+0 0  9995
2 42915   3.4347   0.7080 0011366  97.5212 143.1869  1.00271764 31545
NOAA 20 (JPSS-1)        
1 43013U 17073A   26088.14130129  .00000102  00000+0  69080-4 0  9993
2 43013  98.7714  28.3377 0001899 111.4734 248.6645 14.19541157433112
